[
    {
        "Altitude(m)": 617719.7783881319,
        "Argument of Periapsis(deg)": 0.0,
        "Eccentricity": 0.0,
        "Inclination(deg)": 60.0,
        "Latitude(deg)": -41.10266026077548,
        "Longitude(deg)": -139.90544426331678,
        "Mean Anomaly(deg)": 229.09090000000003,
        "RAAN(deg)": 110.00000000000001,
        "Satellite Name": "Test1 498",
        "Satellite Number": 498,
        "Semi-Major Axis(m)": 6980739.136638005,
        "Time(s)": 0
    },
    {
        "Altitude(m)": 617911.314651956,
        "Argument of Periapsis(deg)": 0.00010418945913296404,
        "Eccentricity": 0.0,
        "Inclination(deg)": 60.0,
        "Latitude(deg)": -41.56585316121545,
        "Longitude(deg)": -139.40103905538274,
        "Mean Anomaly(deg)": 229.71100614546188,
        "RAAN(deg)": 109.99957995086025,
        "Satellite Name": "Test1 498",
        "Satellite Number": 498,
        "Semi-Major Axis(m)": 6980739.136638005,
        "Time(s)": 10
    }
]